{
    "satellites": [
        {
            "name": "starlink354",
            "title": "Starlink-354 (G10-36)",
            "tle": [
                "1 67860C 26034L   26060.10326389 -.01533400  00000+0 -74264-2 0   609",
                "2 67860  53.1530 254.3091 0000932  57.3766 168.2373 15.83351130    19"
            ],
            "stdMag": 5,
            "noradId": "67860",
            "tleUrl": "http://celestrak.org/NORAD/elements/supplemental/sup-gp.php?FILE=starlink&FORMAT=tle",
            "launchDate": "2026-02-20T01:41:40.000Z",
            "active": true,
            "batch": [
                {
                    "noradId": "67860",
                    "tle": [
                        "1 67860C 26034L   26060.10326389 -.01533400  00000+0 -74264-2 0   609",
                        "2 67860  53.1530 254.3091 0000932  57.3766 168.2373 15.83351130    19"
                    ]
                },
                {
                    "noradId": "67859",
                    "tle": [
                        "1 67859C 26034K   26060.09770833 -.01415000  00000+0 -69109-2 0   609",
                        "2 67859  53.1532 254.3446 0000812  44.9774 145.3249 15.83048744    13"
                    ]
                },
                {
                    "noradId": "67858",
                    "tle": [
                        "1 67858C 26034J   26060.09979167 -.01310700  00000+0 -64521-2 0   603",
                        "2 67858  53.1533 254.3420 0001039  66.9242 131.4760 15.82772206    11"
                    ]
                },
                {
                    "noradId": "67857",
                    "tle": [
                        "1 67857C 26034H   26060.09909722 -.00877170  00000+0 -43676-2 0   608",
                        "2 67857  53.1538 254.3620 0000774  43.8520 143.0068 15.82085721    14"
                    ]
                },
                {
                    "noradId": "67856",
                    "tle": [
                        "1 67856C 26034G   26060.09631944 -.01080000  00000+0 -53464-2 0   600",
                        "2 67856  53.1535 254.3677 0000701  31.3035 143.5582 15.82415662    12"
                    ]
                },
                {
                    "noradId": "67855",
                    "tle": [
                        "1 67855C 26034F   26060.10048611 -.00685010  00000+0 -34259-2 0   606",
                        "2 67855  53.1539 254.3625 0001278  49.0465 141.8171 15.81795793    11"
                    ]
                },
                {
                    "noradId": "67854",
                    "tle": [
                        "1 67854C 26034E   26060.09770833 -.00482160  00000+0 -24211-2 0   609",
                        "2 67854  53.1538 254.3849 0000801  35.2124 135.9006 15.81505478    17"
                    ]
                },
                {
                    "noradId": "67853",
                    "tle": [
                        "1 67853C 26034D   26060.10326389 -.00306700  00000+0 -15446-2 0   608",
                        "2 67853  53.1556 254.3650 0001056  45.0333 153.7125 15.81265055    14"
                    ]
                },
                {
                    "noradId": "67852",
                    "tle": [
                        "1 67852C 26034C   26060.09631944 -.00162340  00000+0 -81934-3 0   607",
                        "2 67852  53.1557 254.4084 0000357  71.3555  83.7768 15.81074302    15"
                    ]
                },
                {
                    "noradId": "67851",
                    "tle": [
                        "1 67851C 26034B   26060.10326389 -.00042263  00000+0 -21358-3 0   607",
                        "2 67851  53.1559 254.3822 0001166  74.0700 116.4735 15.80925849    14"
                    ]
                },
                {
                    "noradId": "67850",
                    "tle": [
                        "1 67850C 26034A   26060.10256944 -.00010476  00000+0 -52968-4 0   608",
                        "2 67850  53.1569 254.3950 0001020  81.3056 101.0637 15.80882621    11"
                    ]
                }
            ]
        }
    ],
    "config": {}
}